SL-14 R/B               
1 21423U 91042B   26041.00439754  .00000418  00000+0  49957-4 0  9993
2 21423  82.4898 246.1496 0016477 336.9902  23.0572 14.81802498848972
ERS-1                   
1 21574U 91050A   26041.44883784  .00000373  00000+0  13421-3 0  9999
2 21574  98.7895  58.9983 0030920 283.5810  76.1934 14.39426804811810
ARIANE 40 R/B           
1 21610U 91050F   26041.14847947  .00000327  00000+0  11033-3 0  9994
2 21610  98.2073  94.4107 0003849 142.0267 218.1195 14.42872944815020
INTERCOSMOS 25          
1 21819U 91086A   26041.32974999  .00001496  00000+0  29030-3 0  9996
2 21819  82.6086 326.5412 1486813 175.8735 185.6393 12.11923096493378
SL-8 R/B                
1 21876U 92008B   26041.24725772  .00000032  00000+0  17518-4 0  9992
2 21876  82.9261 288.1938 0033900 209.6045 273.3160 13.75969680705642
SL-8 R/B                
1 21938U 92020B   26041.48954699  .00000131  00000+0  12020-3 0  9995
2 21938  82.9333 173.9504 0029196  16.3798  53.8167 13.75545599697390
USA 81                  
1 21949U 92023A   26041.34433794  .00000231  00000+0  78061-4 0  9992
2 21949  85.0120 147.2089 0002660 102.1429 258.0062 14.32357940 90872
COSMOS 2219             
1 22219U 92076A   26041.49890808 -.00000039  00000+0  40770-5 0  9994
2 22219  71.0581  74.9130 0020247 244.2668 115.6365 14.14076498714532
SL-16 R/B               
1 22220U 92076B   26041.04131528 -.00000011  00000+0  18616-4 0  9997
2 22220  70.9978 246.6150 0011439 145.9399  16.5666 14.16855968717910
COSMOS 2221             
1 22236U 92080A   26041.21645453  .00002266  00000+0  19909-3 0  9993
2 22236  82.5054 305.3929 0012872 287.9945  71.9873 14.96091847776684
SL-16 R/B               
1 22285U 92093B   26041.46080250  .00000019  00000+0  34167-4 0  9994
2 22285  71.0200  61.4279 0005190 322.5305  37.5456 14.15441087709309
COSMOS 2228             
1 22286U 92094A   26041.45129536  .00001746  00000+0  14872-3 0  9994
2 22286  82.5156 263.3940 0018963  37.3866 322.8672 14.97063904771981
